[
	{
	    "postcode": "58160",
	    "name": "Karvila",
	    "region": "Enonkoski"
	},
	{
	    "postcode": "58170",
	    "name": "Simanala",
	    "region": "Enonkoski"
	},
	{
	    "postcode": "58175",
	    "name": "Enonkoski",
	    "region": "Enonkoski"
	},
	{
	    "postcode": "58180",
	    "name": "Ihamaniemi",
	    "region": "Enonkoski"
	},
	{
	    "postcode": "79700",
	    "name": "Heinävesi",
	    "region": "Heinavesi"
	},
	{
	    "postcode": "79810",
	    "name": "Karvionkanava",
	    "region": "Heinavesi"
	},
	{
	    "postcode": "79820",
	    "name": "Varistaipale",
	    "region": "Heinavesi"
	},
	{
	    "postcode": "79830",
	    "name": "Palokki",
	    "region": "Heinavesi"
	},
	{
	    "postcode": "79850",
	    "name": "Uusi-Valamo",
	    "region": "Heinavesi"
	},
	{
	    "postcode": "79860",
	    "name": "Suuraho",
	    "region": "Heinavesi"
	},
	{
	    "postcode": "79885",
	    "name": "Etelä-Petruma",
	    "region": "Heinavesi"
	},
	{
	    "postcode": "79895",
	    "name": "Sarvikumpu",
	    "region": "Heinavesi"
	},
	{
	    "postcode": "79910",
	    "name": "Kerma",
	    "region": "Heinavesi"
	},
	{
	    "postcode": "79940",
	    "name": "Vihtari",
	    "region": "Heinavesi"
	},
	{
	    "postcode": "52520",
	    "name": "Syväsmäki",
	    "region": "Hirvensalmi"
	},
	{
	    "postcode": "52550",
	    "name": "Hirvensalmi",
	    "region": "Hirvensalmi"
	},
	{
	    "postcode": "52610",
	    "name": "Tuukkala",
	    "region": "Hirvensalmi"
	},
	{
	    "postcode": "52620",
	    "name": "Kuitula",
	    "region": "Hirvensalmi"
	},
	{
	    "postcode": "77460",
	    "name": "Maavesi",
	    "region": "Joroinen"
	},
	{
	    "postcode": "77480",
	    "name": "Savuniemi",
	    "region": "Joroinen"
	},
	{
	    "postcode": "78880",
	    "name": "Kuvansi",
	    "region": "Joroinen"
	},
	{
	    "postcode": "79600",
	    "name": "Joroinen",
	    "region": "Joroinen"
	},
	{
	    "postcode": "79620",
	    "name": "Huutokoski",
	    "region": "Joroinen"
	},
	{
	    "postcode": "79630",
	    "name": "Kolma",
	    "region": "Joroinen"
	},
	{
	    "postcode": "79660",
	    "name": "Kerisalo",
	    "region": "Joroinen"
	},
	{
	    "postcode": "79680",
	    "name": "Lahnalahti",
	    "region": "Joroinen"
	},
	{
	    "postcode": "79690",
	    "name": "Kaitainen",
	    "region": "Joroinen"
	},
	{
	    "postcode": "51760",
	    "name": "Nuutilanmäki",
	    "region": "Juva"
	},
	{
	    "postcode": "51780",
	    "name": "Kuosmala",
	    "region": "Juva"
	},
	{
	    "postcode": "51810",
	    "name": "Maivala",
	    "region": "Juva"
	},
	{
	    "postcode": "51820",
	    "name": "Hatsola",
	    "region": "Juva"
	},
	{
	    "postcode": "51850",
	    "name": "Vuorenmaa",
	    "region": "Juva"
	},
	{
	    "postcode": "51860",
	    "name": "Narila",
	    "region": "Juva"
	},
	{
	    "postcode": "51880",
	    "name": "Koikkala",
	    "region": "Juva"
	},
	{
	    "postcode": "51890",
	    "name": "Risulahti",
	    "region": "Juva"
	},
	{
	    "postcode": "51900",
	    "name": "Juva",
	    "region": "Juva"
	},
	{
	    "postcode": "51930",
	    "name": "Paatela",
	    "region": "Juva"
	},
	{
	    "postcode": "51940",
	    "name": "Härkälä",
	    "region": "Juva"
	},
	{
	    "postcode": "51980",
	    "name": "Lautela",
	    "region": "Juva"
	},
	{
	    "postcode": "51200",
	    "name": "Kangasniemi",
	    "region": "Kangasniemi"
	},
	{
	    "postcode": "51260",
	    "name": "Tahkomäki",
	    "region": "Kangasniemi"
	},
	{
	    "postcode": "51270",
	    "name": "Kutemajärvi",
	    "region": "Kangasniemi"
	},
	{
	    "postcode": "51310",
	    "name": "Levä",
	    "region": "Kangasniemi"
	},
	{
	    "postcode": "51335",
	    "name": "Kaihlamäki",
	    "region": "Kangasniemi"
	},
	{
	    "postcode": "51340",
	    "name": "Hännilä",
	    "region": "Kangasniemi"
	},
	{
	    "postcode": "51360",
	    "name": "Koivula",
	    "region": "Kangasniemi"
	},
	{
	    "postcode": "51380",
	    "name": "Synsiö",
	    "region": "Kangasniemi"
	},
	{
	    "postcode": "51430",
	    "name": "Läsäkoski",
	    "region": "Kangasniemi"
	},
	{
	    "postcode": "51440",
	    "name": "Vuojalahti",
	    "region": "Kangasniemi"
	},
	{
	    "postcode": "51460",
	    "name": "Luusniemi",
	    "region": "Kangasniemi"
	},
	{
	    "postcode": "50100",
	    "name": "Mikkeli10",
	    "region": "Mikkeli"
	},
	{
	    "postcode": "50120",
	    "name": "Mikkeli12",
	    "region": "Mikkeli"
	},
	{
	    "postcode": "50130",
	    "name": "Mikkeli13",
	    "region": "Mikkeli"
	},
	{
	    "postcode": "50150",
	    "name": "Mikkeli15",
	    "region": "Mikkeli"
	},
	{
	    "postcode": "50160",
	    "name": "Mikkeli16",
	    "region": "Mikkeli"
	},
	{
	    "postcode": "50170",
	    "name": "Mikkeli17",
	    "region": "Mikkeli"
	},
	{
	    "postcode": "50180",
	    "name": "Mikkeli18",
	    "region": "Mikkeli"
	},
	{
	    "postcode": "50190",
	    "name": "Mikkeli19",
	    "region": "Mikkeli"
	},
	{
	    "postcode": "50200",
	    "name": "Mikkeli20",
	    "region": "Mikkeli"
	},
	{
	    "postcode": "50300",
	    "name": "Mikkeli30",
	    "region": "Mikkeli"
	},
	{
	    "postcode": "50350",
	    "name": "Norola",
	    "region": "Mikkeli"
	},
	{
	    "postcode": "50500",
	    "name": "Mikkeli50",
	    "region": "Mikkeli"
	},
	{
	    "postcode": "50520",
	    "name": "Mikkeli52",
	    "region": "Mikkeli"
	},
	{
	    "postcode": "50600",
	    "name": "Mikkeli60",
	    "region": "Mikkeli"
	},
	{
	    "postcode": "50670",
	    "name": "Otava",
	    "region": "Mikkeli"
	},
	{
	    "postcode": "50700",
	    "name": "Mikkeli70",
	    "region": "Mikkeli"
	},
	{
	    "postcode": "50770",
	    "name": "Korpikoski",
	    "region": "Mikkeli"
	},
	{
	    "postcode": "50800",
	    "name": "Mikkeli80",
	    "region": "Mikkeli"
	},
	{
	    "postcode": "50970",
	    "name": "Mikkeli–Ihastjärvi",
	    "region": "Mikkeli"
	},
	{
	    "postcode": "51130",
	    "name": "Vanhamäki",
	    "region": "Mikkeli"
	},
	{
	    "postcode": "51420",
	    "name": "Harjumaa",
	    "region": "Mikkeli"
	},
	{
	    "postcode": "51450",
	    "name": "Pajulankylä",
	    "region": "Mikkeli"
	},
	{
	    "postcode": "51520",
	    "name": "Hiirola",
	    "region": "Mikkeli"
	},
	{
	    "postcode": "51540",
	    "name": "Kalvitsa",
	    "region": "Mikkeli"
	},
	{
	    "postcode": "51600",
	    "name": "Haukivuori",
	    "region": "Mikkeli"
	},
	{
	    "postcode": "51620",
	    "name": "Pitkäaho",
	    "region": "Mikkeli"
	},
	{
	    "postcode": "51670",
	    "name": "Nykälä",
	    "region": "Mikkeli"
	},
	{
	    "postcode": "51720",
	    "name": "Rahula",
	    "region": "Mikkeli"
	},
	{
	    "postcode": "51740",
	    "name": "Huuhanaho",
	    "region": "Mikkeli"
	},
	{
	    "postcode": "52100",
	    "name": "Anttola",
	    "region": "Mikkeli"
	},
	{
	    "postcode": "52110",
	    "name": "Majavesi",
	    "region": "Mikkeli"
	},
	{
	    "postcode": "52150",
	    "name": "Hauhala",
	    "region": "Mikkeli"
	},
	{
	    "postcode": "52300",
	    "name": "Ristiina",
	    "region": "Mikkeli"
	},
	{
	    "postcode": "52320",
	    "name": "Vitsiälä",
	    "region": "Mikkeli"
	},
	{
	    "postcode": "52330",
	    "name": "Heimari",
	    "region": "Mikkeli"
	},
	{
	    "postcode": "52340",
	    "name": "Hangastenmaa",
	    "region": "Mikkeli"
	},
	{
	    "postcode": "52360",
	    "name": "Someenjärvi",
	    "region": "Mikkeli"
	},
	{
	    "postcode": "52420",
	    "name": "Pellosniemi",
	    "region": "Mikkeli"
	},
	{
	    "postcode": "52510",
	    "name": "Hietanen",
	    "region": "Mikkeli"
	},
	{
	    "postcode": "52780",
	    "name": "Kuomiokoski",
	    "region": "Mikkeli"
	},
	{
	    "postcode": "52830",
	    "name": "Suomenniemi",
	    "region": "Mikkeli"
	},
	{
	    "postcode": "77380",
	    "name": "Kantala",
	    "region": "Mikkeli"
	},
	{
	    "postcode": "52700",
	    "name": "Mäntyharju",
	    "region": "Mantyharju"
	},
	{
	    "postcode": "52720",
	    "name": "Karankamäki",
	    "region": "Mantyharju"
	},
	{
	    "postcode": "52730",
	    "name": "Koirakivi",
	    "region": "Mantyharju"
	},
	{
	    "postcode": "52740",
	    "name": "Tuustaipale",
	    "region": "Mantyharju"
	},
	{
	    "postcode": "52760",
	    "name": "Mynttilä",
	    "region": "Mantyharju"
	},
	{
	    "postcode": "52850",
	    "name": "Halmeniemi",
	    "region": "Mantyharju"
	},
	{
	    "postcode": "52890",
	    "name": "Käävänkylä",
	    "region": "Mantyharju"
	},
	{
	    "postcode": "52960",
	    "name": "Nurmaa",
	    "region": "Mantyharju"
	},
	{
	    "postcode": "52970",
	    "name": "Pankalahti",
	    "region": "Mantyharju"
	},
	{
	    "postcode": "52980",
	    "name": "Ahvenainen",
	    "region": "Mantyharju"
	},
	{
	    "postcode": "19410",
	    "name": "Kuortti",
	    "region": "Pertunmaa"
	},
	{
	    "postcode": "19420",
	    "name": "Mansikkamäki",
	    "region": "Pertunmaa"
	},
	{
	    "postcode": "19430",
	    "name": "Pertunmaa",
	    "region": "Pertunmaa"
	},
	{
	    "postcode": "19460",
	    "name": "Ruorasmäki",
	    "region": "Pertunmaa"
	},
	{
	    "postcode": "19470",
	    "name": "Lihavanpää",
	    "region": "Pertunmaa"
	},
	{
	    "postcode": "19480",
	    "name": "Hartosenpää",
	    "region": "Pertunmaa"
	},
	{
	    "postcode": "76100",
	    "name": "Pieksämäki10",
	    "region": "Pieksamaki"
	},
	{
	    "postcode": "76120",
	    "name": "Pieksämäki12",
	    "region": "Pieksamaki"
	},
	{
	    "postcode": "76130",
	    "name": "Pieksämäki13",
	    "region": "Pieksamaki"
	},
	{
	    "postcode": "76150",
	    "name": "Pieksämäki15",
	    "region": "Pieksamaki"
	},
	{
	    "postcode": "76280",
	    "name": "Partaharju",
	    "region": "Pieksamaki"
	},
	{
	    "postcode": "76620",
	    "name": "Pyhitty",
	    "region": "Pieksamaki"
	},
	{
	    "postcode": "76780",
	    "name": "Lamminmäki",
	    "region": "Pieksamaki"
	},
	{
	    "postcode": "76850",
	    "name": "Naarajärvi",
	    "region": "Pieksamaki"
	},
	{
	    "postcode": "76940",
	    "name": "Nenonpelto",
	    "region": "Pieksamaki"
	},
	{
	    "postcode": "77110",
	    "name": "Paltanen",
	    "region": "Pieksamaki"
	},
	{
	    "postcode": "77120",
	    "name": "Venetmäki",
	    "region": "Pieksamaki"
	},
	{
	    "postcode": "77140",
	    "name": "Vanaja",
	    "region": "Pieksamaki"
	},
	{
	    "postcode": "77220",
	    "name": "Neuvola",
	    "region": "Pieksamaki"
	},
	{
	    "postcode": "77240",
	    "name": "Halkokumpu",
	    "region": "Pieksamaki"
	},
	{
	    "postcode": "77320",
	    "name": "Hurskaala",
	    "region": "Pieksamaki"
	},
	{
	    "postcode": "77330",
	    "name": "Virtasalmi",
	    "region": "Pieksamaki"
	},
	{
	    "postcode": "77350",
	    "name": "Montola",
	    "region": "Pieksamaki"
	},
	{
	    "postcode": "77430",
	    "name": "Siikamäki",
	    "region": "Pieksamaki"
	},
	{
	    "postcode": "77520",
	    "name": "Haapakoski",
	    "region": "Pieksamaki"
	},
	{
	    "postcode": "77570",
	    "name": "Jäppilä",
	    "region": "Pieksamaki"
	},
	{
	    "postcode": "77580",
	    "name": "Tihusniemi",
	    "region": "Pieksamaki"
	},
	{
	    "postcode": "52200",
	    "name": "Puumala",
	    "region": "Puumala"
	},
	{
	    "postcode": "52230",
	    "name": "Hurissalo",
	    "region": "Puumala"
	},
	{
	    "postcode": "52270",
	    "name": "Ryhälä",
	    "region": "Puumala"
	},
	{
	    "postcode": "58830",
	    "name": "Parkumäki",
	    "region": "Rantasalmi"
	},
	{
	    "postcode": "58850",
	    "name": "Hiltula",
	    "region": "Rantasalmi"
	},
	{
	    "postcode": "58900",
	    "name": "Rantasalmi",
	    "region": "Rantasalmi"
	},
	{
	    "postcode": "58910",
	    "name": "Rantasalmias",
	    "region": "Rantasalmi"
	},
	{
	    "postcode": "58920",
	    "name": "Kolkontaipale",
	    "region": "Rantasalmi"
	},
	{
	    "postcode": "58940",
	    "name": "Tuusmäki",
	    "region": "Rantasalmi"
	},
	{
	    "postcode": "57100",
	    "name": "Savonlinna10",
	    "region": "Savonlinna"
	},
	{
	    "postcode": "57120",
	    "name": "Savonlinna12",
	    "region": "Savonlinna"
	},
	{
	    "postcode": "57130",
	    "name": "Savonlinna13",
	    "region": "Savonlinna"
	},
	{
	    "postcode": "57170",
	    "name": "Savonlinna17",
	    "region": "Savonlinna"
	},
	{
	    "postcode": "57200",
	    "name": "Savonlinna20",
	    "region": "Savonlinna"
	},
	{
	    "postcode": "57210",
	    "name": "Savonlinna21",
	    "region": "Savonlinna"
	},
	{
	    "postcode": "57220",
	    "name": "Savonlinna22",
	    "region": "Savonlinna"
	},
	{
	    "postcode": "57230",
	    "name": "Savonlinna23",
	    "region": "Savonlinna"
	},
	{
	    "postcode": "57310",
	    "name": "Savonlinna31",
	    "region": "Savonlinna"
	},
	{
	    "postcode": "57510",
	    "name": "Savonlinna51",
	    "region": "Savonlinna"
	},
	{
	    "postcode": "57600",
	    "name": "Savonlinna60",
	    "region": "Savonlinna"
	},
	{
	    "postcode": "57710",
	    "name": "Savonlinna71",
	    "region": "Savonlinna"
	},
	{
	    "postcode": "57810",
	    "name": "Savonlinna81",
	    "region": "Savonlinna"
	},
	{
	    "postcode": "58130",
	    "name": "Oravi",
	    "region": "Savonlinna"
	},
	{
	    "postcode": "58140",
	    "name": "Ahvensalmi",
	    "region": "Savonlinna"
	},
	{
	    "postcode": "58150",
	    "name": "Makkola",
	    "region": "Savonlinna"
	},
	{
	    "postcode": "58200",
	    "name": "Kerimäki",
	    "region": "Savonlinna"
	},
	{
	    "postcode": "58220",
	    "name": "Louhi",
	    "region": "Savonlinna"
	},
	{
	    "postcode": "58260",
	    "name": "Kumpuranta",
	    "region": "Savonlinna"
	},
	{
	    "postcode": "58300",
	    "name": "Savonranta",
	    "region": "Savonlinna"
	},
	{
	    "postcode": "58320",
	    "name": "Raikuu",
	    "region": "Savonlinna"
	},
	{
	    "postcode": "58360",
	    "name": "Säimen",
	    "region": "Savonlinna"
	},
	{
	    "postcode": "58390",
	    "name": "Rönkönvaara",
	    "region": "Savonlinna"
	},
	{
	    "postcode": "58410",
	    "name": "Haapakallio",
	    "region": "Savonlinna"
	},
	{
	    "postcode": "58420",
	    "name": "Silvola",
	    "region": "Savonlinna"
	},
	{
	    "postcode": "58430",
	    "name": "Kulennoinen",
	    "region": "Savonlinna"
	},
	{
	    "postcode": "58450",
	    "name": "Punkaharju",
	    "region": "Savonlinna"
	},
	{
	    "postcode": "58500",
	    "name": "Punkaharju-Punkasalmi",
	    "region": "Savonlinna"
	},
	{
	    "postcode": "58520",
	    "name": "Hiukkajoki",
	    "region": "Savonlinna"
	},
	{
	    "postcode": "58550",
	    "name": "Putikko",
	    "region": "Savonlinna"
	},
	{
	    "postcode": "58570",
	    "name": "Ruhvana",
	    "region": "Savonlinna"
	},
	{
	    "postcode": "58580",
	    "name": "Vuoriniemi",
	    "region": "Savonlinna"
	},
	{
	    "postcode": "58650",
	    "name": "Kiviapaja",
	    "region": "Savonlinna"
	},
	{
	    "postcode": "58680",
	    "name": "Piojärvi",
	    "region": "Savonlinna"
	},
	{
	    "postcode": "58690",
	    "name": "Ala-Särkilahti",
	    "region": "Savonlinna"
	},
	{
	    "postcode": "58770",
	    "name": "Pihlajalahti",
	    "region": "Savonlinna"
	},
	{
	    "postcode": "58810",
	    "name": "Kallislahti",
	    "region": "Savonlinna"
	},
	{
	    "postcode": "58610",
	    "name": "Telakanava",
	    "region": "Sulkava"
	},
	{
	    "postcode": "58620",
	    "name": "Lohilahti",
	    "region": "Sulkava"
	},
	{
	    "postcode": "58700",
	    "name": "Sulkava",
	    "region": "Sulkava"
	},
	{
	    "postcode": "58720",
	    "name": "Kaartilankoski",
	    "region": "Sulkava"
	}
]